GLOBALSTAR M004 [-]     
1 25163U 98008B   23290.94043802 -.00000083  00000+0  11684-3 0  9992
2 25163  51.9974 109.6881 0003451  35.1653 129.1272 12.63340663184802
GLOBALSTAR M002 [-]     
1 25164U 98008C   23291.08047761 -.00000043  00000+0  65803-3 0  9995
2 25164  52.0031 324.9139 0001542 107.8395 252.2593 11.61496476113409
GLOBALSTAR M003 [-]     
1 25165U 98008D   23291.49454929  .00000048  00000+0  14633-2 0  9997
2 25165  51.9778  51.7013 0008466 148.1590 289.1898 12.11945531159627
GLOBALSTAR M014 [-]     
1 25306U 98023A   23291.42220287 -.00000052  00000+0  46949-3 0  9994
2 25306  51.9826 260.0537 0001047 350.4832 183.2325 11.65461171120290
GLOBALSTAR M006 [-]     
1 25307U 98023B   23291.19445955 -.00000054  00000+0  43767-3 0  9997
2 25307  51.9932 290.3814 0003715  92.9742 348.5470 11.58154881146389
GLOBALSTAR M015 [-]     
1 25308U 98023C   23291.21544779  .00000017  00000+0  20637-2 0  9993
2 25308  51.9858   0.9437 0012758  76.7004 296.1028 11.48854028124204
GLOBALSTAR M008 [-]     
1 25309U 98023D   23291.07003015 -.00000038  00000+0  45506-3 0  9998
2 25309  51.9953 161.0787 0002535 354.3479 152.9981 12.36030053162640
